0 FENGYUN 1C DEB
1 31632U 99025CAN 13279.47900036  .00004451  00000-0  14625-2 0  4978
2 31632 098.9943 003.5172 0188344 059.2099 302.6771 14.29206274334158
0 FENGYUN 1C DEB
1 31632U 99025CAN 13284.02943469  .00004280  00000-0  14128-2 0  4981
2 31632 098.9943 008.2140 0185951 045.5331 316.1149 14.29245845334801
0 FENGYUN 1C DEB
1 31632U 99025CAN 13286.05957273  .00004658  00000-0  15350-2 0  4992
2 31632 098.9895 010.3057 0186062 039.3762 322.1212 14.29269345335092
0 FENGYUN 1C DEB
1 31632U 99025CAN 13290.04974481  .00005273  00000-0  17388-2 0  5006
2 31632 098.9918 014.4247 0184590 028.1241 333.0770 14.29314721335668
0 FENGYUN 1C DEB
1 31632U 99025CAN 13291.44975354  .00005272  00000-0  17376-2 0  5018
2 31632 098.9904 015.8696 0184732 023.9965 336.9690 14.29329676335860
